TRANSPORTER-16 OBJECT P 
1 68429U 26067P   26104.13620262  .00006029  00000+0  29947-3 0  9995
2 68429  97.4463  63.5565 0000922 197.7744 162.3458 15.18039562  2221
