{
  "norad_id": 68429,
  "name": "TRANSPORTER-16 OBJECT P",
  "history": [
    {
      "epoch": "2026-04-14T03:16:07.906368Z",
      "apogee_km": 512.4013597640806,
      "perigee_km": 511.13086163046773,
      "latitude_deg": 2.227174804515818e-05,
      "longitude_deg": 172.20659302418449,
      "height_km": 515.4580882567298,
      "semi_major_axis_km": 6889.903110697273,
      "eccentricity": 9.22e-05,
      "inclination_deg": 97.4463,
      "raan_deg": 63.5565,
      "arg_perigee_deg": 197.7744,
      "mean_anomaly_deg": 162.3458,
      "mean_motion_rev_day": 15.18039562
    }
  ]
}